{"type": "FeatureCollection", "features": [{"type": "Feature", "properties": {"norad_id": 28054, "name": "DMSP 5D-3 F16 (USA 172)", "group": "weather", "lat": 6.249917021111443, "lon": 10.922117277604508, "alt_km": 844.7338539201828, "timestamp": "2025-12-20T09:36:01.273707+00:00", "meta": {"OBJECT_NAME": "DMSP 5D-3 F16 (USA 172)", "OBJECT_ID": "2003-048A", "EPOCH": "2025-12-19T22:00:09.822240", "MEAN_MOTION": 14.14426642, "ECCENTRICITY": 0.00063034, "INCLINATION": 99.0039, "RA_OF_ASC_NODE": 11.4301, "ARG_OF_PERICENTER": 298.0236, "MEAN_ANOMALY": 129.1206, "EPHEMERIS_TYPE": 0, "CLASSIFICATION_TYPE": "U", "NORAD_CAT_ID": 28054, "ELEMENT_SET_NO": 999, "REV_AT_EPOCH": 14414, "BSTAR": 6.8286002e-05, "MEAN_MOTION_DOT": 8.5e-07, "MEAN_MOTION_DDOT": 0}, "tle": {"line1": "1 28054U 03048A   25353.91678035  .00000085  00000+0  68286-4 0  9997", "line2": "2 28054  99.0039  11.4301 0006303 298.0236 129.1206 14.14426642144142"}}, "geometry": {"type": "Point", "coordinates": [10.922117277604508, 6.249917021111443]}}, {"type": "Feature", "properties": {"norad_id": 28912, "name": "METEOSAT-9 (MSG-2)", "group": "weather", "lat": -5.912904937704835, "lon": -83.16281351208734, "alt_km": 35618.6577556459, "timestamp": "2025-12-20T09:36:01.273766+00:00", "meta": {"OBJECT_NAME": "METEOSAT-9 (MSG-2)", "OBJECT_ID": "2005-049B", "EPOCH": "2025-12-18T20:21:29.033280", "MEAN_MOTION": 1.00264866, "ECCENTRICITY": 0.0082047, "INCLINATION": 8.9417, "RA_OF_ASC_NODE": 55.9014, "ARG_OF_PERICENTER": 282.314, "MEAN_ANOMALY": 99.6592, "EPHEMERIS_TYPE": 0, "CLASSIFICATION_TYPE": "U", "NORAD_CAT_ID": 28912, "ELEMENT_SET_NO": 999, "REV_AT_EPOCH": 519, "BSTAR": 0, "MEAN_MOTION_DOT": 1.45e-06, "MEAN_MOTION_DDOT": 0}, "tle": {"line1": "1 28912U 05049B   25352.84825270  .00000145  00000+0  00000+0 0  9991", "line2": "2 28912   8.9417  55.9014 0082047 282.3140  99.6592  1.00264866  5196"}}, "geometry": {"type": "Point", "coordinates": [-83.16281351208734, -5.912904937704835]}}, {"type": "Feature", "properties": {"norad_id": 29522, "name": "DMSP 5D-3 F17 (USA 191)", "group": "weather", "lat": -39.21458858523389, "lon": 6.8400515009151714, "alt_km": 852.3349664410207, "timestamp": "2025-12-20T09:36:01.273783+00:00", "meta": {"OBJECT_NAME": "DMSP 5D-3 F17 (USA 191)", "OBJECT_ID": "2006-050A", "EPOCH": "2025-12-19T21:54:29.106432", "MEAN_MOTION": 14.14922582, "ECCENTRICITY": 0.00097036, "INCLINATION": 98.739, "RA_OF_ASC_NODE": 359.1526, "ARG_OF_PERICENTER": 203.2135, "MEAN_ANOMALY": 156.8602, "EPHEMERIS_TYPE": 0, "CLASSIFICATION_TYPE": "U", "NORAD_CAT_ID": 29522, "ELEMENT_SET_NO": 999, "REV_AT_EPOCH": 98706, "BSTAR": 8.716928e-05, "MEAN_MOTION_DOT": 1.25e-06, "MEAN_MOTION_DDOT": 0}, "tle": {"line1": "1 29522U 06050A   25353.91283688  .00000125  00000+0  87169-4 0  9996", "line2": "2 29522  98.7390 359.1526 0009703 203.2135 156.8602 14.14922582987060"}}, "geometry": {"type": "Point", "coordinates": [6.8400515009151714, -39.21458858523389]}}, {"type": "Feature", "properties": {"norad_id": 32958, "name": "FENGYUN 3A", "group": "weather", "lat": 18.994976906550274, "lon": 116.77649548919493, "alt_km": 830.3565490154488, "timestamp": "2025-12-20T09:36:01.273797+00:00", "meta": {"OBJECT_NAME": "FENGYUN 3A", "OBJECT_ID": "2008-026A", "EPOCH": "2025-12-19T14:14:12.505056", "MEAN_MOTION": 14.19516596, "ECCENTRICITY": 0.0007684, "INCLINATION": 98.6705, "RA_OF_ASC_NODE": 292.9758, "ARG_OF_PERICENTER": 288.4847, "MEAN_ANOMALY": 71.5494, "EPHEMERIS_TYPE": 0, "CLASSIFICATION_TYPE": "U", "NORAD_CAT_ID": 32958, "ELEMENT_SET_NO": 999, "REV_AT_EPOCH": 90992, "BSTAR": 5.2028e-05, "MEAN_MOTION_DOT": 6.6e-07, "MEAN_MOTION_DDOT": 0}, "tle": {"line1": "1 32958U 08026A   25353.59320029  .00000066  00000+0  52028-4 0  9993", "line2": "2 32958  98.6705 292.9758 0007684 288.4847  71.5494 14.19516596909928"}}, "geometry": {"type": "Point", "coordinates": [116.77649548919493, 18.994976906550274]}}, {"type": "Feature", "properties": {"norad_id": 35491, "name": "GOES 14", "group": "weather", "lat": 0.6950544873332749, "lon": 118.63392803698802, "alt_km": 35836.950736985724, "timestamp": "2025-12-20T09:36:01.273829+00:00", "meta": {"OBJECT_NAME": "GOES 14", "OBJECT_ID": "2009-033A", "EPOCH": "2025-12-20T04:37:38.708832", "MEAN_MOTION": 1.0009688, "ECCENTRICITY": 5.11e-05, "INCLINATION": 1.222, "RA_OF_ASC_NODE": 85.3312, "ARG_OF_PERICENTER": 182.2865, "MEAN_ANOMALY": 136.3657, "EPHEMERIS_TYPE": 0, "CLASSIFICATION_TYPE": "U", "NORAD_CAT_ID": 35491, "ELEMENT_SET_NO": 999, "REV_AT_EPOCH": 479, "BSTAR": 0, "MEAN_MOTION_DOT": 2e-07, "MEAN_MOTION_DDOT": 0}, "tle": {"line1": "1 35491U 09033A   25354.19280913  .00000020  00000+0  00000+0 0  9999", "line2": "2 35491   1.2220  85.3312 0000511 182.2865 136.3657  1.00096880  4795"}}, "geometry": {"type": "Point", "coordinates": [118.63392803698802, 0.6950544873332749]}}, {"type": "Feature", "properties": {"norad_id": 35951, "name": "DMSP 5D-3 F18 (USA 210)", "group": "weather", "lat": -3.7640097620549864, "lon": 150.1730632833127, "alt_km": 853.1430200689983, "timestamp": "2025-12-20T09:36:01.273843+00:00", "meta": {"OBJECT_NAME": "DMSP 5D-3 F18 (USA 210)", "OBJECT_ID": "2009-057A", "EPOCH": "2025-12-20T03:38:37.261824", "MEAN_MOTION": 14.1477379, "ECCENTRICITY": 0.0011889, "INCLINATION": 98.8841, "RA_OF_ASC_NODE": 330.5157, "ARG_OF_PERICENTER": 43.2633, "MEAN_ANOMALY": 316.9472, "EPHEMERIS_TYPE": 0, "CLASSIFICATION_TYPE": "U", "NORAD_CAT_ID": 35951, "ELEMENT_SET_NO": 999, "REV_AT_EPOCH": 83427, "BSTAR": 0.00012684, "MEAN_MOTION_DOT": 2e-06, "MEAN_MOTION_DDOT": 0}, "tle": {"line1": "1 35951U 09057A   25354.15182016  .00000200  00000+0  12684-3 0  9992", "line2": "2 35951  98.8841 330.5157 0011889  43.2633 316.9472 14.14773790834274"}}, "geometry": {"type": "Point", "coordinates": [150.1730632833127, -3.7640097620549864]}}, {"type": "Feature", "properties": {"norad_id": 36411, "name": "EWS-G2 (GOES 15)", "group": "weather", "lat": -0.4217508181501561, "lon": -65.37290505506063, "alt_km": 35766.511287463545, "timestamp": "2025-12-20T09:36:01.273857+00:00", "meta": {"OBJECT_NAME": "EWS-G2 (GOES 15)", "OBJECT_ID": "2010-008A", "EPOCH": "2025-12-20T03:14:58.464960", "MEAN_MOTION": 1.00270955, "ECCENTRICITY": 0.0005468, "INCLINATION": 0.831, "RA_OF_ASC_NODE": 86.089, "ARG_OF_PERICENTER": 177.3498, "MEAN_ANOMALY": 295.6447, "EPHEMERIS_TYPE": 0, "CLASSIFICATION_TYPE": "U", "NORAD_CAT_ID": 36411, "ELEMENT_SET_NO": 999, "REV_AT_EPOCH": 5784, "BSTAR": 0, "MEAN_MOTION_DOT": 6.2e-07, "MEAN_MOTION_DDOT": 0}, "tle": {"line1": "1 36411U 10008A   25354.13539890  .00000062  00000+0  00000+0 0  9997", "line2": "2 36411   0.8310  86.0890 0005468 177.3498 295.6447  1.00270955 57842"}}, "geometry": {"type": "Point", "coordinates": [-65.37290505506063, -0.4217508181501561]}}, {"type": "Feature", "properties": {"norad_id": 36744, "name": "COMS 1", "group": "weather", "lat": -4.238751144588502, "lon": 1.4585905175709504, "alt_km": 35786.10158404118, "timestamp": "2025-12-20T09:36:01.273870+00:00", "meta": {"OBJECT_NAME": "COMS 1", "OBJECT_ID": "2010-032A", "EPOCH": "2025-12-19T21:07:51.684384", "MEAN_MOTION": 1.00272527, "ECCENTRICITY": 6.76e-05, "INCLINATION": 4.3565, "RA_OF_ASC_NODE": 77.9191, "ARG_OF_PERICENTER": 201.7497, "MEAN_ANOMALY": 254.194, "EPHEMERIS_TYPE": 0, "CLASSIFICATION_TYPE": "U", "NORAD_CAT_ID": 36744, "ELEMENT_SET_NO": 999, "REV_AT_EPOCH": 4929, "BSTAR": 0, "MEAN_MOTION_DOT": -3.23e-06, "MEAN_MOTION_DDOT": 0}, "tle": {"line1": "1 36744U 10032A   25353.88045931 -.00000323  00000+0  00000+0 0  9993", "line2": "2 36744   4.3565  77.9191 0000676 201.7497 254.1940  1.00272527 49297"}}, "geometry": {"type": "Point", "coordinates": [1.4585905175709504, -4.238751144588502]}}, {"type": "Feature", "properties": {"norad_id": 37214, "name": "FENGYUN 3B", "group": "weather", "lat": 30.68919301755293, "lon": -140.17771697696242, "alt_km": 856.8494620184883, "timestamp": "2025-12-20T09:36:01.273882+00:00", "meta": {"OBJECT_NAME": "FENGYUN 3B", "OBJECT_ID": "2010-059A", "EPOCH": "2025-12-20T05:51:40.183776", "MEAN_MOTION": 14.14792303, "ECCENTRICITY": 0.002169, "INCLINATION": 98.9901, "RA_OF_ASC_NODE": 34.2742, "ARG_OF_PERICENTER": 336.3748, "MEAN_ANOMALY": 99.2999, "EPHEMERIS_TYPE": 0, "CLASSIFICATION_TYPE": "U", "NORAD_CAT_ID": 37214, "ELEMENT_SET_NO": 999, "REV_AT_EPOCH": 78212, "BSTAR": 8.3488e-05, "MEAN_MOTION_DOT": 1.16e-06, "MEAN_MOTION_DDOT": 0}, "tle": {"line1": "1 37214U 10059A   25354.24421509  .00000116  00000+0  83488-4 0  9990", "line2": "2 37214  98.9901  34.2742 0021690 336.3748  99.2999 14.14792303782120"}}, "geometry": {"type": "Point", "coordinates": [-140.17771697696242, 30.68919301755293]}}, {"type": "Feature", "properties": {"norad_id": 37849, "name": "SUOMI NPP", "group": "weather", "lat": 59.247109238416485, "lon": 126.72358502872606, "alt_km": 819.55544429362, "timestamp": "2025-12-20T09:36:01.273894+00:00", "meta": {"OBJECT_NAME": "SUOMI NPP", "OBJECT_ID": "2011-061A", "EPOCH": "2025-12-17T23:31:21.474624", "MEAN_MOTION": 14.19515682, "ECCENTRICITY": 0.00023932, "INCLINATION": 98.7779, "RA_OF_ASC_NODE": 289.2746, "ARG_OF_PERICENTER": 111.1248, "MEAN_ANOMALY": 249.0184, "EPHEMERIS_TYPE": 0, "CLASSIFICATION_TYPE": "U", "NORAD_CAT_ID": 37849, "ELEMENT_SET_NO": 999, "REV_AT_EPOCH": 73273, "BSTAR": 4.8615036e-05, "MEAN_MOTION_DOT": 5.8e-07, "MEAN_MOTION_DDOT": 0}, "tle": {"line1": "1 37849U 11061A   25351.98010966  .00000058  00000+0  48615-4 0  9995", "line2": "2 37849  98.7779 289.2746 0002393 111.1248 249.0184 14.19515682732735"}}, "geometry": {"type": "Point", "coordinates": [126.72358502872606, 59.247109238416485]}}]}